[{"OBJECT_NAME":"STARLINK-5772","OBJECT_ID":"2023-042AQ","EPOCH":"2026-03-09T23:19:15.524544","MEAN_MOTION":15.02641737,"ECCENTRICITY":0.0001064,"INCLINATION":43.007,"RA_OF_ASC_NODE":41.4855,"ARG_OF_PERICENTER":311.1431,"MEAN_ANOMALY":48.932,"EPHEMERIS_TYPE":0,"CLASSIFICATION_TYPE":"U","NORAD_CAT_ID":56024,"ELEMENT_SET_NO":999,"REV_AT_EPOCH":16310,"BSTAR":0.00095049441,"MEAN_MOTION_DOT":0.00012695,"MEAN_MOTION_DDOT":0},{"OBJECT_NAME":"SL-12 DEB","OBJECT_ID":"1987-079J","EPOCH":"2026-03-09T07:16:43.218336","MEAN_MOTION":4.80779399,"ECCENTRICITY":0.53362082,"INCLINATION":64.6265,"RA_OF_ASC_NODE":146.8654,"ARG_OF_PERICENTER":24.4166,"MEAN_ANOMALY":353.6408,"EPHEMERIS_TYPE":0,"CLASSIFICATION_TYPE":"U","NORAD_CAT_ID":24990,"ELEMENT_SET_NO":999,"REV_AT_EPOCH":49951,"BSTAR":0.0016602004,"MEAN_MOTION_DOT":5.83e-6,"MEAN_MOTION_DDOT":0}]
